APRIZESAT 2             
1 28366U 04025A   22308.88284042  .00000290  00000+0  10590-3 0  9995
2 28366  98.1420 170.7026 0106201 272.8111  86.0926 14.36865319961986
SAUDICOMSAT 1           
1 28369U 04025D   22308.86243890  .00000644  00000+0  16665-3 0  9994
2 28369  98.4603 271.5129 0034630 104.3540 256.1503 14.52899835972239
SAUDICOMSAT 2           
1 28370U 04025E   22308.84119195  .00000646  00000+0  18416-3 0  9992
2 28370  98.5519 270.8566 0056533 297.1571  62.3864 14.47794344968949
APRIZESAT 1             
1 28372U 04025G   22308.83784656  .00000444  00000+0  12578-3 0  9992
2 28372  98.5129 270.9384 0045610 207.1380 152.7429 14.49881424970447
NANOSAT-1               
1 28493U 04049B   22308.54457382  .00001467  00000+0  22990-3 0  9998
2 28493  98.1181  49.4730 0004146 189.3868 170.7263 14.74206687960502
SAUDICOMSAT 7           
1 31119U 07012C   22308.43617576  .00001196  00000+0  24106-3 0  9991
2 31119  98.1998 253.0772 0060028  14.1588 346.1279 14.62235766829160
SAUDICOMSAT 6           
1 31121U 07012E   22308.41930916  .00000804  00000+0  17447-3 0  9993
2 31121  98.2392 248.3275 0077274 116.8258 244.0870 14.59001881827359
SAUDICOMSAT 5           
1 31124U 07012H   22308.26929276  .00001240  00000+0  24205-3 0  9991
2 31124  98.1693 254.3712 0050368 319.7304  40.0172 14.63979452830041
SAUDICOMSAT 3           
1 31125U 07012J   22308.42652726  .00001268  00000+0  23864-3 0  9993
2 31125  98.1352 255.8598 0041410 262.8122  96.8372 14.65827797831011
SAUDICOMSAT 4           
1 31127U 07012L   22308.37784675  .00001044  00000+0  21707-3 0  9994
2 31127  98.2221 251.4343 0068835  62.9752 297.8454 14.60736932828304
APRIZESAT 4             
1 35684U 09041D   22308.81924869  .00001018  00000+0  14070-3 0  9996
2 35684  98.3064 327.2588 0045355 261.2255  98.3818 14.79814893715822
APRIZESAT 3             
1 35686U 09041F   22308.70308592  .00001899  00000+0  20234-3 0  9991
2 35686  98.1038  38.4787 0073029  88.0437 272.9141 14.88212672719461
AISSAT 1                
1 36797U 10035C   22308.79673679  .00002706  00000+0  30484-3 0  9996
2 36797  98.2362 137.9718 0012105  75.5367 284.7190 14.87471501667303
S-NET D                 
1 43186U 18014G   22308.68993368  .00005146  00000+0  43473-3 0  9992
2 43186  97.6473 211.6884 0010508 173.2247 186.9119 14.98480669259916
S-NET B                 
1 43187U 18014H   22308.69027150  .00005054  00000+0  42711-3 0  9993
2 43187  97.6468 211.6334 0010524 173.2787 186.8578 14.98478066259914
S-NET A                 
1 43188U 18014J   22308.69057891  .00005122  00000+0  43279-3 0  9995
2 43188  97.6475 211.7056 0010467 173.2885 186.8480 14.98478580259913
S-NET C                 
1 43189U 18014K   22308.69156141  .00005061  00000+0  42777-3 0  9998
2 43189  97.6470 211.6215 0010406 173.1392 186.9975 14.98475559258462
SALSAT                  
1 46495U 20068K   22308.73554302  .00005454  00000+0  38543-3 0  9991
2 46495  97.7415 250.2135 0016728 157.1271 203.0703 15.05210398115285
